{
  "type": "FeatureCollection",
  "features": [
    {
      "type": "Feature",
      "properties": {
        "norad_id": 31978,
        "name": "FENGYUN 1C DEB",
        "group": "fengyun-1c-debris",
        "lat": 38.24052498590716,
        "lon": -28.245198951020548,
        "alt_km": 1054.6051316382618,
        "timestamp": "2025-12-16T13:52:37.808658+00:00",
        "meta_object_name": "FENGYUN 1C DEB",
        "meta_object_id": "1999-025CPF",
        "meta_epoch": "2025-12-08T09:40:24.995712",
        "meta_mean_motion": 13.63098344,
        "meta_eccentricity": 0.0263392,
        "meta_inclination": 98.3802,
        "meta_ra_of_asc_node": 138.0358,
        "meta_arg_of_pericenter": 61.5347,
        "meta_mean_anomaly": 301.2062,
        "meta_ephemeris_type": 0,
        "meta_classification_type": "U",
        "meta_norad_cat_id": 31978,
        "meta_element_set_no": 999,
        "meta_rev_at_epoch": 91531,
        "meta_bstar": 0.0016862469,
        "meta_mean_motion_dot": 1.637e-05,
        "meta_mean_motion_ddot": 0,
        "tle_line1": "1 31978U 99025CPF 25342.40306708  .00001637  00000+0  16862-2 0  9998",
        "tle_line2": "2 31978  98.3802 138.0358 0263392  61.5347 301.2062 13.63098344915313"
      },
      "geometry": {
        "type": "Point",
        "coordinates": [
          -28.245198951020548,
          38.24052498590716
        ]
      }
    },
    {
      "type": "Feature",
      "properties": {
        "norad_id": 31979,
        "name": "FENGYUN 1C DEB",
        "group": "fengyun-1c-debris",
        "lat": 41.97327971891188,
        "lon": -88.37173968262302,
        "alt_km": 1131.7319654432958,
        "timestamp": "2025-12-16T13:52:37.808668+00:00",
        "meta_object_name": "FENGYUN 1C DEB",
        "meta_object_id": "1999-025CPG",
        "meta_epoch": "2025-12-13T23:48:23.569344",
        "meta_mean_motion": 13.69300547,
        "meta_eccentricity": 0.02666155,
        "meta_inclination": 99.3765,
        "meta_ra_of_asc_node": 80.5613,
        "meta_arg_of_pericenter": 277.6915,
        "meta_mean_anomaly": 79.4034,
        "meta_ephemeris_type": 0,
        "meta_classification_type": "U",
        "meta_norad_cat_id": 31979,
        "meta_element_set_no": 999,
        "meta_rev_at_epoch": 57929,
        "meta_bstar": 0.0038296702,
        "meta_mean_motion_dot": 4.222e-05,
        "meta_mean_motion_ddot": 0,
        "tle_line1": "1 31979U 99025CPG 25347.99193946  .00004222  00000+0  38297-2 0  9995",
        "tle_line2": "2 31979  99.3765  80.5613 0266615 277.6915  79.4034 13.69300547579293"
      },
      "geometry": {
        "type": "Point",
        "coordinates": [
          -88.37173968262302,
          41.97327971891188
        ]
      }
    },
    {
      "type": "Feature",
      "properties": {
        "norad_id": 31980,
        "name": "FENGYUN 1C DEB",
        "group": "fengyun-1c-debris",
        "lat": 22.38083331286063,
        "lon": 71.73250769047627,
        "alt_km": 1071.4310952888227,
        "timestamp": "2025-12-16T13:52:37.808678+00:00",
        "meta_object_name": "FENGYUN 1C DEB",
        "meta_object_id": "1999-025CPH",
        "meta_epoch": "2025-12-13T11:51:29.901312",
        "meta_mean_motion": 13.32151441,
        "meta_eccentricity": 0.04280699,
        "meta_inclination": 97.6129,
        "meta_ra_of_asc_node": 72.5932,
        "meta_arg_of_pericenter": 111.039,
        "meta_mean_anomaly": 253.7071,
        "meta_ephemeris_type": 0,
        "meta_classification_type": "U",
        "meta_norad_cat_id": 31980,
        "meta_element_set_no": 999,
        "meta_rev_at_epoch": 89680,
        "meta_bstar": 0.00074102624,
        "meta_mean_motion_dot": 5.73e-06,
        "meta_mean_motion_ddot": 0,
        "tle_line1": "1 31980U 99025CPH 25347.49409608  .00000573  00000+0  74103-3 0  9999",
        "tle_line2": "2 31980  97.6129  72.5932 0428069 111.0390 253.7071 13.32151441896800"
      },
      "geometry": {
        "type": "Point",
        "coordinates": [
          71.73250769047627,
          22.38083331286063
        ]
      }
    },
    {
      "type": "Feature",
      "properties": {
        "norad_id": 31984,
        "name": "FENGYUN 1C DEB",
        "group": "fengyun-1c-debris",
        "lat": -12.989884708973085,
        "lon": 172.81609718621192,
        "alt_km": 778.2781110318592,
        "timestamp": "2025-12-16T13:52:37.808688+00:00",
        "meta_object_name": "FENGYUN 1C DEB",
        "meta_object_id": "1999-025CPM",
        "meta_epoch": "2025-12-14T20:28:02.996544",
        "meta_mean_motion": 14.22962941,
        "meta_eccentricity": 0.00626572,
        "meta_inclination": 98.558,
        "meta_ra_of_asc_node": 353.13,
        "meta_arg_of_pericenter": 221.1233,
        "meta_mean_anomaly": 138.5215,
        "meta_ephemeris_type": 0,
        "meta_classification_type": "U",
        "meta_norad_cat_id": 31984,
        "meta_element_set_no": 999,
        "meta_rev_at_epoch": 94403,
        "meta_bstar": 0.00038353885,
        "meta_mean_motion_dot": 8.38e-06,
        "meta_mean_motion_ddot": 0,
        "tle_line1": "1 31984U 99025CPM 25348.85281246  .00000838  00000+0  38354-3 0  9992",
        "tle_line2": "2 31984  98.5580 353.1300 0062657 221.1233 138.5215 14.22962941944032"
      },
      "geometry": {
        "type": "Point",
        "coordinates": [
          172.81609718621192,
          -12.989884708973085
        ]
      }
    },
    {
      "type": "Feature",
      "properties": {
        "norad_id": 31985,
        "name": "FENGYUN 1C DEB",
        "group": "fengyun-1c-debris",
        "lat": -30.06494213569306,
        "lon": -103.65058121563425,
        "alt_km": 827.6023629339661,
        "timestamp": "2025-12-16T13:52:37.808697+00:00",
        "meta_object_name": "FENGYUN 1C DEB",
        "meta_object_id": "1999-025CPN",
        "meta_epoch": "2025-12-13T23:34:50.116800",
        "meta_mean_motion": 14.22977716,
        "meta_eccentricity": 0.01504255,
        "meta_inclination": 98.2196,
        "meta_ra_of_asc_node": 249.1254,
        "meta_arg_of_pericenter": 243.0612,
        "meta_mean_anomaly": 115.5134,
        "meta_ephemeris_type": 0,
        "meta_classification_type": "U",
        "meta_norad_cat_id": 31985,
        "meta_element_set_no": 999,
        "meta_rev_at_epoch": 95628,
        "meta_bstar": 0.00043991826,
        "meta_mean_motion_dot": 1.071e-05,
        "meta_mean_motion_ddot": 0,
        "tle_line1": "1 31985U 99025CPN 25347.98252450  .00001071  00000+0  43992-3 0  9995",
        "tle_line2": "2 31985  98.2196 249.1254 0150425 243.0612 115.5134 14.22977716956281"
      },
      "geometry": {
        "type": "Point",
        "coordinates": [
          -103.65058121563425,
          -30.06494213569306
        ]
      }
    },
    {
      "type": "Feature",
      "properties": {
        "norad_id": 31987,
        "name": "FENGYUN 1C DEB",
        "group": "fengyun-1c-debris",
        "lat": 52.65717088667583,
        "lon": -47.61641485170633,
        "alt_km": 738.6548432629061,
        "timestamp": "2025-12-16T13:52:37.808708+00:00",
        "meta_object_name": "FENGYUN 1C DEB",
        "meta_object_id": "1999-025CPQ",
        "meta_epoch": "2025-12-15T21:08:44.288160",
        "meta_mean_motion": 14.44933533,
        "meta_eccentricity": 0.00516418,
        "meta_inclination": 99.0395,
        "meta_ra_of_asc_node": 323.6855,
        "meta_arg_of_pericenter": 148.1982,
        "meta_mean_anomaly": 241.7444,
        "meta_ephemeris_type": 0,
        "meta_classification_type": "U",
        "meta_norad_cat_id": 31987,
        "meta_element_set_no": 999,
        "meta_rev_at_epoch": 96415,
        "meta_bstar": 0.00070092849,
        "meta_mean_motion_dot": 2.433e-05,
        "meta_mean_motion_ddot": 0,
        "tle_line1": "1 31987U 99025CPQ 25349.88106815  .00002433  00000+0  70093-3 0  9996",
        "tle_line2": "2 31987  99.0395 323.6855 0051641 148.1982 241.7444 14.44933533964157"
      },
      "geometry": {
        "type": "Point",
        "coordinates": [
          -47.61641485170633,
          52.65717088667583
        ]
      }
    },
    {
      "type": "Feature",
      "properties": {
        "norad_id": 31989,
        "name": "FENGYUN 1C DEB",
        "group": "fengyun-1c-debris",
        "lat": 3.5841129234736693,
        "lon": 51.133161381411504,
        "alt_km": 895.9413997117035,
        "timestamp": "2025-12-16T13:52:37.808718+00:00",
        "meta_object_name": "FENGYUN 1C DEB",
        "meta_object_id": "1999-025CPS",
        "meta_epoch": "2025-12-15T16:11:35.170368",
        "meta_mean_motion": 13.93591985,
        "meta_eccentricity": 0.0115261,
        "meta_inclination": 99.2132,
        "meta_ra_of_asc_node": 50.8156,
        "meta_arg_of_pericenter": 291.0863,
        "meta_mean_anomaly": 221.027,
        "meta_ephemeris_type": 0,
        "meta_classification_type": "U",
        "meta_norad_cat_id": 31989,
        "meta_element_set_no": 999,
        "meta_rev_at_epoch": 93758,
        "meta_bstar": 0.00049954957,
        "meta_mean_motion_dot": 6.47e-06,
        "meta_mean_motion_ddot": 0,
        "tle_line1": "1 31989U 99025CPS 25349.67471262  .00000647  00000+0  49955-3 0  9994",
        "tle_line2": "2 31989  99.2132  50.8156 0115261 291.0863 221.0270 13.93591985937587"
      },
      "geometry": {
        "type": "Point",
        "coordinates": [
          51.133161381411504,
          3.5841129234736693
        ]
      }
    }
  ]
}